[
    {
        "Altitude(m)": 714618.2763432605,
        "Argument of Periapsis(deg)": 0.006834072711976239,
        "Eccentricity": 0.0,
        "Inclination(deg)": 45.0,
        "Latitude(deg)": -37.26549162860347,
        "Longitude(deg)": 60.3682602462114,
        "Mean Anomaly(deg)": -58.53457001151155,
        "RAAN(deg)": 209.99354883512507,
        "Satellite Name": "Constellation 1 942",
        "Satellite Number": 942,
        "Semi-Major Axis(m)": 7083131.272910544,
        "Time(s)": 114
    },
    {
        "Altitude(m)": 714606.7231808648,
        "Argument of Periapsis(deg)": 0.006894020718221645,
        "Eccentricity": 0.0,
        "Inclination(deg)": 45.0,
        "Latitude(deg)": -37.23738783302308,
        "Longitude(deg)": 60.43147114765308,
        "Mean Anomaly(deg)": -58.47386887126159,
        "RAAN(deg)": 209.99349224595952,
        "Satellite Name": "Constellation 1 942",
        "Satellite Number": 942,
        "Semi-Major Axis(m)": 7083131.272910544,
        "Time(s)": 115
    },
    {
        "Altitude(m)": 714595.1555871768,
        "Argument of Periapsis(deg)": 0.006953968724467052,
        "Eccentricity": 0.0,
        "Inclination(deg)": 45.0,
        "Latitude(deg)": -37.20924562812087,
        "Longitude(deg)": 60.494632197463645,
        "Mean Anomaly(deg)": -58.41316773101172,
        "RAAN(deg)": 209.99343565679393,
        "Satellite Name": "Constellation 1 942",
        "Satellite Number": 942,
        "Semi-Major Axis(m)": 7083131.272910544,
        "Time(s)": 116
    },
    {
        "Altitude(m)": 714583.57360404,
        "Argument of Periapsis(deg)": 0.007013916730712457,
        "Eccentricity": 0.0,
        "Inclination(deg)": 45.0,
        "Latitude(deg)": -37.18106508033681,
        "Longitude(deg)": 60.557743415731956,
        "Mean Anomaly(deg)": -58.35246659076176,
        "RAAN(deg)": 209.99337906762838,
        "Satellite Name": "Constellation 1 942",
        "Satellite Number": 942,
        "Semi-Major Axis(m)": 7083131.272910544,
        "Time(s)": 117
    },
    {
        "Altitude(m)": 714571.9772733193,
        "Argument of Periapsis(deg)": 0.007073864736957864,
        "Eccentricity": 0.0,
        "Inclination(deg)": 45.0,
        "Latitude(deg)": -37.15284625606711,
        "Longitude(deg)": 60.62080482284419,
        "Mean Anomaly(deg)": -58.291765450511924,
        "RAAN(deg)": 209.99332247846283,
        "Satellite Name": "Constellation 1 942",
        "Satellite Number": 942,
        "Semi-Major Axis(m)": 7083131.272910544,
        "Time(s)": 118
    },
    {
        "Altitude(m)": 714560.3666369556,
        "Argument of Periapsis(deg)": 0.0071338127432032696,
        "Eccentricity": 0.0,
        "Inclination(deg)": 45.0,
        "Latitude(deg)": -37.12458922166383,
        "Longitude(deg)": 60.683816271386334,
        "Mean Anomaly(deg)": -58.23106431026204,
        "RAAN(deg)": 209.99326588929722,
        "Satellite Name": "Constellation 1 942",
        "Satellite Number": 942,
        "Semi-Major Axis(m)": 7083131.272910544,
        "Time(s)": 119
    },
    {
        "Altitude(m)": 714548.7417369201,
        "Argument of Periapsis(deg)": 0.007193760749448674,
        "Eccentricity": 0.0,
        "Inclination(deg)": 45.0,
        "Latitude(deg)": -37.09629404343397,
        "Longitude(deg)": 60.74677811852963,
        "Mean Anomaly(deg)": -58.17036317001208,
        "RAAN(deg)": 209.99320930013167,
        "Satellite Name": "Constellation 1 942",
        "Satellite Number": 942,
        "Semi-Major Axis(m)": 7083131.272910544,
        "Time(s)": 120
    },
    {
        "Altitude(m)": 714537.1026152341,
        "Argument of Periapsis(deg)": 0.007253708755694079,
        "Eccentricity": 0.0,
        "Inclination(deg)": 45.0,
        "Latitude(deg)": -37.0679607876402,
        "Longitude(deg)": 60.80969021744821,
        "Mean Anomaly(deg)": -58.10966202976224,
        "RAAN(deg)": 209.99315271096611,
        "Satellite Name": "Constellation 1 942",
        "Satellite Number": 942,
        "Semi-Major Axis(m)": 7083131.272910544,
        "Time(s)": 121
    },
    {
        "Altitude(m)": 714525.4493139699,
        "Argument of Periapsis(deg)": 0.0073136567619394854,
        "Eccentricity": 0.0,
        "Inclination(deg)": 45.0,
        "Latitude(deg)": -37.03958952049979,
        "Longitude(deg)": 60.87255258970527,
        "Mean Anomaly(deg)": -58.04896088951236,
        "RAAN(deg)": 209.99309612180053,
        "Satellite Name": "Constellation 1 942",
        "Satellite Number": 942,
        "Semi-Major Axis(m)": 7083131.272910544,
        "Time(s)": 122
    },
    {
        "Altitude(m)": 714513.7818752495,
        "Argument of Periapsis(deg)": 0.0073736047681848904,
        "Eccentricity": 0.0,
        "Inclination(deg)": 45.0,
        "Latitude(deg)": -37.011180308184315,
        "Longitude(deg)": 60.935365257154885,
        "Mean Anomaly(deg)": -57.98825974926241,
        "RAAN(deg)": 209.99303953263498,
        "Satellite Name": "Constellation 1 942",
        "Satellite Number": 942,
        "Semi-Major Axis(m)": 7083131.272910544,
        "Time(s)": 123
    },
    {
        "Altitude(m)": 714502.1003412249,
        "Argument of Periapsis(deg)": 0.007433552774430298,
        "Eccentricity": 0.0,
        "Inclination(deg)": 45.0,
        "Latitude(deg)": -36.98273321681965,
        "Longitude(deg)": 60.998128241940165,
        "Mean Anomaly(deg)": -57.92755860901243,
        "RAAN(deg)": 209.99298294346937,
        "Satellite Name": "Constellation 1 942",
        "Satellite Number": 942,
        "Semi-Major Axis(m)": 7083131.272910544,
        "Time(s)": 124
    },
    {
        "Altitude(m)": 714490.4047541211,
        "Argument of Periapsis(deg)": 0.007493500780675703,
        "Eccentricity": 0.0,
        "Inclination(deg)": 45.0,
        "Latitude(deg)": -36.95424831248545,
        "Longitude(deg)": 61.060841566492016,
        "Mean Anomaly(deg)": -57.866857468762596,
        "RAAN(deg)": 209.99292635430382,
        "Satellite Name": "Constellation 1 942",
        "Satellite Number": 942,
        "Semi-Major Axis(m)": 7083131.272910544,
        "Time(s)": 125
    },
    {
        "Altitude(m)": 714478.6951561893,
        "Argument of Periapsis(deg)": 0.007553448786921108,
        "Eccentricity": 0.0,
        "Inclination(deg)": 45.0,
        "Latitude(deg)": -36.92572566121493,
        "Longitude(deg)": 61.123505085431574,
        "Mean Anomaly(deg)": -57.806156328512735,
        "RAAN(deg)": 209.99286976513827,
        "Satellite Name": "Constellation 1 942",
        "Satellite Number": 942,
        "Semi-Major Axis(m)": 7083131.272910544,
        "Time(s)": 126
    },
    {
        "Altitude(m)": 714466.9715897399,
        "Argument of Periapsis(deg)": 0.007613396793166514,
        "Eccentricity": 0.0,
        "Inclination(deg)": 45.0,
        "Latitude(deg)": -36.89716532899388,
        "Longitude(deg)": 61.18611915795545,
        "Mean Anomaly(deg)": -57.745455188262774,
        "RAAN(deg)": 209.99281317597269,
        "Satellite Name": "Constellation 1 942",
        "Satellite Number": 942,
        "Semi-Major Axis(m)": 7083131.272910544,
        "Time(s)": 127
    },
    {
        "Altitude(m)": 714455.2340971167,
        "Argument of Periapsis(deg)": 0.007673344799411918,
        "Eccentricity": 0.0,
        "Inclination(deg)": 45.0,
        "Latitude(deg)": -36.868567381761736,
        "Longitude(deg)": 61.24868363925321,
        "Mean Anomaly(deg)": -57.68475404801291,
        "RAAN(deg)": 209.99275658680713,
        "Satellite Name": "Constellation 1 942",
        "Satellite Number": 942,
        "Semi-Major Axis(m)": 7083131.272910544,
        "Time(s)": 128
    },
    {
        "Altitude(m)": 714443.4827207292,
        "Argument of Periapsis(deg)": 0.007733292805657325,
        "Eccentricity": 0.0,
        "Inclination(deg)": 45.0,
        "Latitude(deg)": -36.83993188540999,
        "Longitude(deg)": 61.31119855289413,
        "Mean Anomaly(deg)": -57.62405290776305,
        "RAAN(deg)": 209.99269999764158,
        "Satellite Name": "Constellation 1 942",
        "Satellite Number": 942,
        "Semi-Major Axis(m)": 7083131.272910544,
        "Time(s)": 129
    },
    {
        "Altitude(m)": 714431.717503009,
        "Argument of Periapsis(deg)": 0.00779324081190273,
        "Eccentricity": 0.0,
        "Inclination(deg)": 45.0,
        "Latitude(deg)": -36.81125890578246,
        "Longitude(deg)": 61.373663922728376,
        "Mean Anomaly(deg)": -57.56335176751308,
        "RAAN(deg)": 209.99264340847597,
        "Satellite Name": "Constellation 1 942",
        "Satellite Number": 942,
        "Semi-Major Axis(m)": 7083131.272910544,
        "Time(s)": 130
    },
    {
        "Altitude(m)": 714419.9384864478,
        "Argument of Periapsis(deg)": 0.007853188818148135,
        "Eccentricity": 0.0,
        "Inclination(deg)": 45.0,
        "Latitude(deg)": -36.78254850867496,
        "Longitude(deg)": 61.436079772885435,
        "Mean Anomaly(deg)": -57.50265062726322,
        "RAAN(deg)": 209.99258681931042,
        "Satellite Name": "Constellation 1 942",
        "Satellite Number": 942,
        "Semi-Major Axis(m)": 7083131.272910544,
        "Time(s)": 131
    },
    {
        "Altitude(m)": 714408.145713591,
        "Argument of Periapsis(deg)": 0.007913136824393542,
        "Eccentricity": 0.0,
        "Inclination(deg)": 45.0,
        "Latitude(deg)": -36.75380075983481,
        "Longitude(deg)": 61.49844612777345,
        "Mean Anomaly(deg)": -57.44194948701336,
        "RAAN(deg)": 209.99253023014484,
        "Satellite Name": "Constellation 1 942",
        "Satellite Number": 942,
        "Semi-Major Axis(m)": 7083131.272910544,
        "Time(s)": 132
    }
]